OBJECT_NAME,OBJECT_ID,EPOCH,MEAN_MOTION,ECCENTRICITY,INCLINATION,RA_OF_ASC_NODE,ARG_OF_PERICENTER,MEAN_ANOMALY,EPHEMERIS_TYPE,CLASSIFICATION_TYPE,NORAD_CAT_ID,ELEMENT_SET_NO,REV_AT_EPOCH,BSTAR,MEAN_MOTION_DOT,MEAN_MOTION_DDOT
PROX-1,2019-036A,2026-07-15T08:48:48.922560,14.91249435,.00060135,23.9950,285.9151,10.1561,349.9060,0,U,44339,999,37768,.57709169E-3,.6171E-4,0
NPSAT1,2019-036B,2026-07-14T22:16:37.041600,14.74820760,.0007419,23.9996,37.0454,163.4955,196.5783,0,U,44340,999,37659,.39563E-3,.2959E-4,0
FORMOSAT 7-3,2019-036E,2026-07-14T19:22:11.632512,15.09992955,.00001445,24.0000,348.4178,225.7106,134.3386,0,U,44343,999,38742,.13444411E-3,.2587E-4,0
FORMOSAT 7-1,2019-036L,2026-07-15T07:36:36.158688,14.96612032,.00009521,23.9965,202.7341,131.3090,228.7493,0,U,44349,999,38887,.82510159E-4,.1266E-4,0
FORMOSAT 7-4,2019-036M,2026-07-15T06:33:07.407360,14.96610033,.00011885,23.9978,265.1424,142.3824,217.6760,0,U,44350,999,38828,.87276854E-4,.1322E-4,0
FORMOSAT 7-2,2019-036N,2026-07-15T13:29:21.977088,14.96610547,.00006875,23.9989,317.5071,133.1454,226.9104,0,U,44351,999,38784,.10230257E-3,.1497E-4,0
FORMOSAT 7-6,2019-036Q,2026-07-15T00:40:41.657952,14.96612380,.00013164,23.9966,141.9137,73.0571,287.0074,0,U,44353,999,38599,.96357791E-4,.1428E-4,0
FORMOSAT 7-5,2019-036V,2026-07-15T00:08:12.846336,14.96591580,.00003988,23.9987,80.8187,130.3890,229.6646,0,U,44358,999,38652,.10213756E-3,.1494E-4,0
METEOR-M2 2,2019-038A,2026-07-15T13:17:28.385664,14.24372457,.00007571,98.9153,184.2599,3.3989,356.7195,0,U,44387,999,36533,-.43782221E-4,-.147E-5,0
GLOBAL-4,2019-054E,2026-07-14T22:59:47.641920,15.67063678,.00053427,45.0057,75.8398,195.2427,164.8311,0,U,44499,999,38471,.34611685E-3,.37636E-3,0
ZY-1 02D,2019-059A,2026-07-15T13:55:58.941120,14.35269264,.00031155,98.6716,258.1379,298.2681,61.8190,0,U,44528,999,35841,.11316506E-3,.279E-5,0
TAURUS-1 (JINNIUZUO 1),2019-059C,2026-07-15T14:00:34.258176,14.72370927,.0008087,98.6431,3.1818,214.1709,145.8977,0,U,44530,999,36282,.36493144E-3,.2255E-4,0
ZHUHAI-1 03B,2019-060C,2026-07-15T15:04:59.326752,15.55648189,.00084587,97.5553,355.9679,203.6362,156.4505,0,U,44536,999,38074,.28694173E-3,.19641E-3,0
ZHUHAI-1 03D,2019-060E,2026-07-15T14:51:09.270720,15.51360015,.00075143,97.5399,347.8296,189.4764,170.6347,0,U,44538,999,38048,.34882313E-3,.20457E-3,0
ZHUHAI-1 03E,2019-060F,2026-07-15T14:39:17.347680,15.41930341,.00044033,97.5643,347.5671,274.0276,86.0467,0,U,44539,999,38014,.24490877E-3,.10329E-3,0
GAOFEN-7,2019-072A,2026-07-15T14:41:50.709408,15.21515960,.00174187,97.5705,257.3498,302.3640,57.5909,0,U,44703,999,37196,.87208149E-4,.1897E-4,0
JILIN-1 GAOFEN 2A,2019-075A,2026-07-15T14:25:22.908576,15.40021721,.00051394,97.4967,281.0687,353.4606,6.6572,0,U,44777,999,36925,.21132449E-3,.8354E-4,0
NINGXIA-1 1,2019-076A,2026-07-15T14:43:18.086592,14.02042079,.00115371,45.0066,52.8194,291.4073,68.5530,0,U,44779,999,34184,.43088442E-4,-.63E-6,0
NINGXIA-1 5,2019-076E,2026-07-15T15:01:01.896960,14.02089807,.00114108,45.0065,52.0969,282.3032,77.6524,0,U,44783,999,34176,-.3779615E-5,-.136E-5,0
KL-ALPHA A,2019-077A,2026-07-15T14:27:24.096672,13.56045971,.00123854,88.9230,219.4568,35.7962,324.4020,0,U,44785,999,32958,.8652511E-4,.73E-6,0
CARTOSAT-3,2019-081A,2026-07-15T14:38:48.736320,15.19187664,.00130398,97.4295,258.0177,57.4206,302.8286,0,U,44804,999,36778,.95567083E-4,.1946E-4,0
JILIN-1 GAOFEN 2B,2019-086A,2026-07-15T13:41:12.144480,15.21002474,.00132753,97.4874,268.3870,214.3841,145.6537,0,U,44836,999,36480,.1542543E-3,.3357E-4,0
TIANQIN 1 (CAS-6),2019-093A,2026-07-15T14:12:55.005984,14.95564898,.00099619,97.7816,280.2285,326.9145,33.1452,0,U,44879,999,35629,.21001036E-3,.2273E-4,0
ETRSS-1,2019-093B,2026-07-15T14:10:41.258784,14.96012844,.00100732,97.7830,280.7114,326.7763,33.2824,0,U,44880,999,35630,.22237603E-3,.2438E-4,0
TIANYAN 01,2019-093C,2026-07-15T14:02:10.836960,14.86561120,.00136026,97.7529,268.1232,0.4789,359.6438,0,U,44881,999,35563,.23057664E-4,.151E-5,0
TIANYAN 02,2019-093D,2026-07-15T13:38:32.568864,15.05532254,.00122224,97.7937,291.6375,287.2010,72.7878,0,U,44882,999,35688,.18590801E-3,.2615E-4,0
CBERS 4A,2019-093E,2026-07-15T14:14:06.472608,14.81444005,.00014518,98.0185,264.0561,131.4395,228.6942,0,U,44883,999,35528,.38587552E-4,.249E-5,0
WEILAI 1R,2019-093F,2026-07-15T14:11:14.277408,15.00869409,.00154978,97.7896,286.5289,307.0469,52.9336,0,U,44884,999,35668,.20315074E-3,.2528E-4,0
