PROX-1                  
1 44339U 19036A   26196.36723290  .00006171  00000+0  57709-3 0  9993
2 44339  23.9950 285.9151 0006013  10.1561 349.9060 14.91249435377682
NPSAT1                  
1 44340U 19036B   26195.92820650  .00002959  00000+0  39563-3 0  9992
2 44340  23.9996  37.0454 0007419 163.4955 196.5783 14.74820760376590
FORMOSAT 7-3            
1 44343U 19036E   26195.80707908  .00002587  00000+0  13444-3 0  9999
2 44343  24.0000 348.4178 0000144 225.7106 134.3386 15.09992955387429
FORMOSAT 7-1            
1 44349U 19036L   26196.31708517  .00001266  00000+0  82510-4 0  9993
2 44349  23.9965 202.7341 0000952 131.3090 228.7493 14.96612032388875
FORMOSAT 7-4            
1 44350U 19036M   26196.27300240  .00001322  00000+0  87277-4 0  9999
2 44350  23.9978 265.1424 0001188 142.3824 217.6760 14.96610033388283
FORMOSAT 7-2            
1 44351U 19036N   26196.56205992  .00001497  00000+0  10230-3 0  9997
2 44351  23.9989 317.5071 0000687 133.1454 226.9104 14.96610547387842
FORMOSAT 7-6            
1 44353U 19036Q   26196.02825993  .00001428  00000+0  96358-4 0  9999
2 44353  23.9966 141.9137 0001316  73.0571 287.0074 14.96612380385998
FORMOSAT 7-5            
1 44358U 19036V   26196.00570424  .00001494  00000+0  10214-3 0  9997
2 44358  23.9987  80.8187 0000398 130.3890 229.6646 14.96591580386527
METEOR-M2 2             
1 44387U 19038A   26196.55380076 -.00000147  00000+0 -43782-4 0  9996
2 44387  98.9153 184.2599 0000757   3.3989 356.7195 14.24372457365337
GLOBAL-4                
1 44499U 19054E   26195.95819030  .00037636  00000+0  34612-3 0  9990
2 44499  45.0057  75.8398 0005342 195.2427 164.8311 15.67063678384713
ZY-1 02D                
1 44528U 19059A   26196.58054330  .00000279  00000+0  11317-3 0  9992
2 44528  98.6716 258.1379 0003115 298.2681  61.8190 14.35269264358411
TAURUS-1 (JINNIUZUO 1)  
1 44530U 19059C   26196.58372984  .00002255  00000+0  36493-3 0  9991
2 44530  98.6431   3.1818 0008087 214.1709 145.8977 14.72370927362821
ZHUHAI-1 03B            
1 44536U 19060C   26196.62846443  .00019641  00000+0  28694-3 0  9991
2 44536  97.5553 355.9679 0008458 203.6362 156.4505 15.55648189380749
ZHUHAI-1 03D            
1 44538U 19060E   26196.61885730  .00020457  00000+0  34882-3 0  9997
2 44538  97.5399 347.8296 0007514 189.4764 170.6347 15.51360015380481
ZHUHAI-1 03E            
1 44539U 19060F   26196.61061745  .00010329  00000+0  24491-3 0  9992
2 44539  97.5643 347.5671 0004403 274.0276  86.0467 15.41930341380141
GAOFEN-7                
1 44703U 19072A   26196.61239247  .00001897  00000+0  87208-4 0  9998
2 44703  97.5705 257.3498 0017418 302.3640  57.5909 15.21515960371966
JILIN-1 GAOFEN 2A       
1 44777U 19075A   26196.60095959  .00008354  00000+0  21132-3 0  9999
2 44777  97.4967 281.0687 0005139 353.4606   6.6572 15.40021721369254
NINGXIA-1 1             
1 44779U 19076A   26196.61340378 -.00000063  00000+0  43088-4 0  9996
2 44779  45.0066  52.8194 0011537 291.4073  68.5530 14.02042079341842
NINGXIA-1 5             
1 44783U 19076E   26196.62571640 -.00000136  00000+0 -37796-5 0  9992
2 44783  45.0065  52.0969 0011410 282.3032  77.6524 14.02089807341767
KL-ALPHA A              
1 44785U 19077A   26196.60236223  .00000073  00000+0  86525-4 0  9999
2 44785  88.9230 219.4568 0012385  35.7962 324.4020 13.56045971329589
CARTOSAT-3              
1 44804U 19081A   26196.61028630  .00001946  00000+0  95567-4 0  9994
2 44804  97.4295 258.0177 0013039  57.4206 302.8286 15.19187664367786
JILIN-1 GAOFEN 2B       
1 44836U 19086A   26196.57027945  .00003357  00000+0  15425-3 0  9999
2 44836  97.4874 268.3870 0013275 214.3841 145.6537 15.21002474364809
TIANQIN 1 (CAS-6)       
1 44879U 19093A   26196.59230331  .00002273  00000+0  21001-3 0  9994
2 44879  97.7816 280.2285 0009961 326.9145  33.1452 14.95564898356296
ETRSS-1                 
1 44880U 19093B   26196.59075531  .00002438  00000+0  22238-3 0  9991
2 44880  97.7830 280.7114 0010073 326.7763  33.2824 14.96012844356306
TIANYAN 01              
1 44881U 19093C   26196.58484765  .00000151  00000+0  23058-4 0  9996
2 44881  97.7529 268.1232 0013602   0.4789 359.6438 14.86561120355634
TIANYAN 02              
1 44882U 19093D   26196.56843251  .00002615  00000+0  18591-3 0  9996
2 44882  97.7937 291.6375 0012222 287.2010  72.7878 15.05532254356883
CBERS 4A                
1 44883U 19093E   26196.59313047  .00000249  00000+0  38588-4 0  9995
2 44883  98.0185 264.0561 0001451 131.4395 228.6942 14.81444005355288
WEILAI 1R               
1 44884U 19093F   26196.59113747  .00002528  00000+0  20315-3 0  9991
2 44884  97.7896 286.5289 0015497 307.0469  52.9336 15.00869409356689
